CCSDS_OMM_VERS = 2.0
CREATION_DATE  = 
ORIGINATOR     = 

OBJECT_NAME    = UNKNOWN
OBJECT_ID      = 
CENTER_NAME    = EARTH
REF_FRAME      = TEME
TIME_SYSTEM    = UTC
MEAN_ELEMENT_THEORY = SGP/SGP4

EPOCH          = 2026-03-14T18:32:04.248960
MEAN_MOTION    = 13.76770016
ECCENTRICITY   = .0087122
INCLINATION    = 66.7577
RA_OF_ASC_NODE = 76.0467
ARG_OF_PERICENTER = 172.9297
MEAN_ANOMALY   = 6.7806

EPHEMERIS_TYPE = 0
CLASSIFICATION_TYPE = U
NORAD_CAT_ID   = 81301
ELEMENT_SET_NO = 999
REV_AT_EPOCH   = 61902
BSTAR          = .33228E-3
MEAN_MOTION_DOT = .262E-5
MEAN_MOTION_DDOT = 0

CCSDS_OMM_VERS = 2.0
CREATION_DATE  = 
ORIGINATOR     = 

OBJECT_NAME    = UNKNOWN
OBJECT_ID      = 
CENTER_NAME    = EARTH
REF_FRAME      = TEME
TIME_SYSTEM    = UTC
MEAN_ELEMENT_THEORY = SGP/SGP4

EPOCH          = 2026-03-13T22:17:45.205152
MEAN_MOTION    = 14.56692046
ECCENTRICITY   = .0130695
INCLINATION    = 98.7154
RA_OF_ASC_NODE = 139.4478
ARG_OF_PERICENTER = 205.4339
MEAN_ANOMALY   = 328.7774

EPHEMERIS_TYPE = 0
CLASSIFICATION_TYPE = U
NORAD_CAT_ID   = 81311
ELEMENT_SET_NO = 999
REV_AT_EPOCH   = 65286
BSTAR          = .1681E-3
MEAN_MOTION_DOT = .785E-5
MEAN_MOTION_DDOT = 0

CCSDS_OMM_VERS = 2.0
CREATION_DATE  = 
ORIGINATOR     = 

OBJECT_NAME    = UNKNOWN
OBJECT_ID      = 
CENTER_NAME    = EARTH
REF_FRAME      = TEME
TIME_SYSTEM    = UTC
MEAN_ELEMENT_THEORY = SGP/SGP4

EPOCH          = 2026-03-14T11:31:40.141344
MEAN_MOTION    = 13.38054256
ECCENTRICITY   = .0216198
INCLINATION    = 67.1402
RA_OF_ASC_NODE = 334.6197
ARG_OF_PERICENTER = 330.3006
MEAN_ANOMALY   = 209.9801

EPHEMERIS_TYPE = 0
CLASSIFICATION_TYPE = U
NORAD_CAT_ID   = 81317
ELEMENT_SET_NO = 999
REV_AT_EPOCH   = 60090
BSTAR          = .26884E-3
MEAN_MOTION_DOT = .98E-6
MEAN_MOTION_DDOT = 0

CCSDS_OMM_VERS = 2.0
CREATION_DATE  = 
ORIGINATOR     = 

OBJECT_NAME    = UNKNOWN
OBJECT_ID      = 
CENTER_NAME    = EARTH
REF_FRAME      = TEME
TIME_SYSTEM    = UTC
MEAN_ELEMENT_THEORY = SGP/SGP4

EPOCH          = 2026-03-13T14:14:27.258720
MEAN_MOTION    = 13.22747168
ECCENTRICITY   = .083546
INCLINATION    = 65.8206
RA_OF_ASC_NODE = 282.2768
ARG_OF_PERICENTER = 348.8356
MEAN_ANOMALY   = 9.5094

EPHEMERIS_TYPE = 0
CLASSIFICATION_TYPE = U
NORAD_CAT_ID   = 81329
ELEMENT_SET_NO = 999
REV_AT_EPOCH   = 59009
BSTAR          = .68731E-3
MEAN_MOTION_DOT = .1912E-4
MEAN_MOTION_DDOT = 0

CCSDS_OMM_VERS = 2.0
CREATION_DATE  = 
ORIGINATOR     = 

OBJECT_NAME    = UNKNOWN
OBJECT_ID      = 
CENTER_NAME    = EARTH
REF_FRAME      = TEME
TIME_SYSTEM    = UTC
MEAN_ELEMENT_THEORY = SGP/SGP4

EPOCH          = 2026-03-15T11:38:03.135264
MEAN_MOTION    = 15.05338935
ECCENTRICITY   = .0006697
INCLINATION    = 85.8804
RA_OF_ASC_NODE = 149.7572
ARG_OF_PERICENTER = 289.3404
MEAN_ANOMALY   = 70.7106

EPHEMERIS_TYPE = 0
CLASSIFICATION_TYPE = U
NORAD_CAT_ID   = 81343
ELEMENT_SET_NO = 999
REV_AT_EPOCH   = 46826
BSTAR          = .52345E-3
MEAN_MOTION_DOT = .7527E-4
MEAN_MOTION_DDOT = 0

CCSDS_OMM_VERS = 2.0
CREATION_DATE  = 
ORIGINATOR     = 

OBJECT_NAME    = UNKNOWN
OBJECT_ID      = 
CENTER_NAME    = EARTH
REF_FRAME      = TEME
TIME_SYSTEM    = UTC
MEAN_ELEMENT_THEORY = SGP/SGP4

EPOCH          = 2026-03-14T17:18:21.117600
MEAN_MOTION    = 13.78997476
ECCENTRICITY   = .0119971
INCLINATION    = 66.7980
RA_OF_ASC_NODE = 191.8070
ARG_OF_PERICENTER = 264.0965
MEAN_ANOMALY   = 94.6422

EPHEMERIS_TYPE = 0
CLASSIFICATION_TYPE = U
NORAD_CAT_ID   = 81359
ELEMENT_SET_NO = 999
REV_AT_EPOCH   = 61816
BSTAR          = .89245E-3
MEAN_MOTION_DOT = .888E-5
MEAN_MOTION_DDOT = 0

CCSDS_OMM_VERS = 2.0
CREATION_DATE  = 
ORIGINATOR     = 

OBJECT_NAME    = UNKNOWN
OBJECT_ID      = 
CENTER_NAME    = EARTH
REF_FRAME      = TEME
TIME_SYSTEM    = UTC
MEAN_ELEMENT_THEORY = SGP/SGP4

EPOCH          = 2026-03-08T21:02:08.847456
MEAN_MOTION    = 13.45388160
ECCENTRICITY   = .071264
INCLINATION    = 65.8806
RA_OF_ASC_NODE = 228.1422
ARG_OF_PERICENTER = 39.6357
MEAN_ANOMALY   = 325.4608

EPHEMERIS_TYPE = 0
CLASSIFICATION_TYPE = U
NORAD_CAT_ID   = 81366
ELEMENT_SET_NO = 999
REV_AT_EPOCH   = 7754
BSTAR          = .29991E-3
MEAN_MOTION_DOT = .773E-5
MEAN_MOTION_DDOT = 0

CCSDS_OMM_VERS = 2.0
CREATION_DATE  = 
ORIGINATOR     = 

OBJECT_NAME    = UNKNOWN
OBJECT_ID      = 
CENTER_NAME    = EARTH
REF_FRAME      = TEME
TIME_SYSTEM    = UTC
MEAN_ELEMENT_THEORY = SGP/SGP4

EPOCH          = 2026-03-13T06:14:03.663168
MEAN_MOTION    = 14.71207282
ECCENTRICITY   = .0070014
INCLINATION    = 98.8095
RA_OF_ASC_NODE = 180.9952
ARG_OF_PERICENTER = 82.9526
MEAN_ANOMALY   = 277.9635

EPHEMERIS_TYPE = 0
CLASSIFICATION_TYPE = U
NORAD_CAT_ID   = 81371
ELEMENT_SET_NO = 999
REV_AT_EPOCH   = 65514
BSTAR          = .60014E-3
MEAN_MOTION_DOT = .3783E-4
MEAN_MOTION_DDOT = 0

CCSDS_OMM_VERS = 2.0
CREATION_DATE  = 
ORIGINATOR     = 

OBJECT_NAME    = UNKNOWN
OBJECT_ID      = 
CENTER_NAME    = EARTH
REF_FRAME      = TEME
TIME_SYSTEM    = UTC
MEAN_ELEMENT_THEORY = SGP/SGP4

EPOCH          = 2026-03-15T10:31:59.911968
MEAN_MOTION    = 12.35619041
ECCENTRICITY   = .0177449
INCLINATION    = 103.1054
RA_OF_ASC_NODE = 334.3263
ARG_OF_PERICENTER = 342.7587
MEAN_ANOMALY   = 16.7495

EPHEMERIS_TYPE = 0
CLASSIFICATION_TYPE = U
NORAD_CAT_ID   = 81390
ELEMENT_SET_NO = 999
REV_AT_EPOCH   = 51154
BSTAR          = -.1528E-2
MEAN_MOTION_DOT = -.254E-5
MEAN_MOTION_DDOT = 0

CCSDS_OMM_VERS = 2.0
CREATION_DATE  = 
ORIGINATOR     = 

OBJECT_NAME    = UNKNOWN
OBJECT_ID      = 
CENTER_NAME    = EARTH
REF_FRAME      = TEME
TIME_SYSTEM    = UTC
MEAN_ELEMENT_THEORY = SGP/SGP4

EPOCH          = 2026-03-04T17:54:07.486272
MEAN_MOTION    = 13.82274067
ECCENTRICITY   = .0039118
INCLINATION    = 100.4046
RA_OF_ASC_NODE = 65.3082
ARG_OF_PERICENTER = 183.0651
MEAN_ANOMALY   = 355.2593

EPHEMERIS_TYPE = 0
CLASSIFICATION_TYPE = U
NORAD_CAT_ID   = 81392
ELEMENT_SET_NO = 999
REV_AT_EPOCH   = 61350
BSTAR          = .34598E-2
MEAN_MOTION_DOT = .3705E-4
MEAN_MOTION_DDOT = 0

CCSDS_OMM_VERS = 2.0
CREATION_DATE  = 
ORIGINATOR     = 

OBJECT_NAME    = UNKNOWN
OBJECT_ID      = 
CENTER_NAME    = EARTH
REF_FRAME      = TEME
TIME_SYSTEM    = UTC
MEAN_ELEMENT_THEORY = SGP/SGP4

EPOCH          = 2026-03-14T21:31:57.222912
MEAN_MOTION    = 13.89179281
ECCENTRICITY   = .015752
INCLINATION    = 99.4590
RA_OF_ASC_NODE = 128.5260
ARG_OF_PERICENTER = 337.4444
MEAN_ANOMALY   = 21.9841

EPHEMERIS_TYPE = 0
CLASSIFICATION_TYPE = U
NORAD_CAT_ID   = 81405
ELEMENT_SET_NO = 999
REV_AT_EPOCH   = 57459
BSTAR          = .11126E-2
MEAN_MOTION_DOT = .1447E-4
MEAN_MOTION_DDOT = 0

CCSDS_OMM_VERS = 2.0
CREATION_DATE  = 
ORIGINATOR     = 

OBJECT_NAME    = UNKNOWN
OBJECT_ID      = 
CENTER_NAME    = EARTH
REF_FRAME      = TEME
TIME_SYSTEM    = UTC
MEAN_ELEMENT_THEORY = SGP/SGP4

EPOCH          = 2026-03-10T02:40:46.697376
MEAN_MOTION    = 14.07099455
ECCENTRICITY   = .0084166
INCLINATION    = 98.7425
RA_OF_ASC_NODE = 313.4212
ARG_OF_PERICENTER = 151.4668
MEAN_ANOMALY   = 209.1146

EPHEMERIS_TYPE = 0
CLASSIFICATION_TYPE = U
NORAD_CAT_ID   = 81427
ELEMENT_SET_NO = 999
REV_AT_EPOCH   = 56405
BSTAR          = .49191E-3
MEAN_MOTION_DOT = .808E-5
MEAN_MOTION_DDOT = 0

