UNKNOWN                 
1 81301U          26073.77227140  .00000262  00000+0  33228-3 0  9991
2 81301  66.7577  76.0467 0087122 172.9297   6.7806 13.76770016619023
UNKNOWN                 
1 81311U          26072.92899543  .00000785  00000+0  16810-3 0  9998
2 81311  98.7154 139.4478 0130695 205.4339 328.7774 14.56692046652864
UNKNOWN                 
1 81317U          26073.48032571  .00000098  00000+0  26884-3 0  9995
2 81317  67.1402 334.6197 0216198 330.3006 209.9801 13.38054256600908
UNKNOWN                 
1 81329U          26072.59337105  .00001912  00000+0  68731-3 0  9993
2 81329  65.8206 282.2768 0835460 348.8356   9.5094 13.22747168590091
UNKNOWN                 
1 81343U          26074.48475851  .00007527  00000+0  52345-3 0  9992
2 81343  85.8804 149.7572 0006697 289.3404  70.7106 15.05338935468266
UNKNOWN                 
1 81359U          26073.72107775  .00000888  00000+0  89245-3 0  9994
2 81359  66.7980 191.8070 0119971 264.0965  94.6422 13.78997476618160
UNKNOWN                 
1 81366U          26067.87649129  .00000773  00000+0  29991-3 0  9990
2 81366  65.8806 228.1422 0712640  39.6357 325.4608 13.45388160 77543
UNKNOWN                 
1 81371U          26072.25976462  .00003783  00000+0  60014-3 0  9992
2 81371  98.8095 180.9952 0070014  82.9526 277.9635 14.71207282655143
UNKNOWN                 
1 81390U          26074.43888787 -.00000254  00000+0 -15280-2 0  9993
2 81390 103.1054 334.3263 0177449 342.7587  16.7495 12.35619041511549
UNKNOWN                 
1 81392U          26063.74591998  .00003705  00000+0  34598-2 0  9997
2 81392 100.4046  65.3082 0039118 183.0651 355.2593 13.82274067613507
UNKNOWN                 
1 81405U          26073.89719008  .00001447  00000+0  11126-2 0  9996
2 81405  99.4590 128.5260 0157520 337.4444  21.9841 13.89179281574593
UNKNOWN                 
1 81427U          26069.11165159  .00000808  00000+0  49191-3 0  9996
2 81427  98.7425 313.4212 0084166 151.4668 209.1146 14.07099455564058
